{
  "type": "FeatureCollection",
  "features": [
    {
      "type": "Feature",
      "properties": {
        "norad_id": 24946,
        "name": "IRIDIUM 33",
        "group": "iridium-33-debris",
        "lat": 58.455687411003254,
        "lon": -122.77711484704464,
        "alt_km": 764.7344896864215,
        "timestamp": "2025-12-24T20:42:21.410439+00:00",
        "meta_object_name": "IRIDIUM 33",
        "meta_object_id": "1997-051C",
        "meta_epoch": "2025-12-24T05:04:52.176864",
        "meta_mean_motion": 14.35045005,
        "meta_eccentricity": 0.00083922,
        "meta_inclination": 86.3858,
        "meta_ra_of_asc_node": 63.4059,
        "meta_arg_of_pericenter": 163.0794,
        "meta_mean_anomaly": 197.0684,
        "meta_ephemeris_type": 0,
        "meta_classification_type": "U",
        "meta_norad_cat_id": 24946,
        "meta_element_set_no": 999,
        "meta_rev_at_epoch": 47999,
        "meta_bstar": 0.00011070213,
        "meta_mean_motion_dot": 3.35e-06,
        "meta_mean_motion_ddot": 0,
        "tle_line1": "1 24946U 97051C   25358.21171501  .00000335  00000+0  11070-3 0  9990",
        "tle_line2": "2 24946  86.3858  63.4059 0008392 163.0794 197.0684 14.35045005479994"
      },
      "geometry": {
        "type": "Point",
        "coordinates": [
          -122.77711484704464,
          58.455687411003254
        ]
      }
    },
    {
      "type": "Feature",
      "properties": {
        "norad_id": 33773,
        "name": "IRIDIUM 33 DEB",
        "group": "iridium-33-debris",
        "lat": 76.34735590189683,
        "lon": 70.47450337179068,
        "alt_km": 732.7568355163248,
        "timestamp": "2025-12-24T20:42:21.410480+00:00",
        "meta_object_name": "IRIDIUM 33 DEB",
        "meta_object_id": "1997-051L",
        "meta_epoch": "2025-12-24T03:42:43.820640",
        "meta_mean_motion": 14.43280063,
        "meta_eccentricity": 0.00132558,
        "meta_inclination": 86.3998,
        "meta_ra_of_asc_node": 55.752,
        "meta_arg_of_pericenter": 113.5752,
        "meta_mean_anomaly": 246.6843,
        "meta_ephemeris_type": 0,
        "meta_classification_type": "U",
        "meta_norad_cat_id": 33773,
        "meta_element_set_no": 999,
        "meta_rev_at_epoch": 88512,
        "meta_bstar": 0.00028414559,
        "meta_mean_motion_dot": 9.77e-06,
        "meta_mean_motion_ddot": 0,
        "tle_line1": "1 33773U 97051L   25358.15467385  .00000977  00000+0  28415-3 0  9992",
        "tle_line2": "2 33773  86.3998  55.7520 0013255 113.5752 246.6843 14.43280063885120"
      },
      "geometry": {
        "type": "Point",
        "coordinates": [
          70.47450337179068,
          76.34735590189683
        ]
      }
    },
    {
      "type": "Feature",
      "properties": {
        "norad_id": 33775,
        "name": "IRIDIUM 33 DEB",
        "group": "iridium-33-debris",
        "lat": 81.57365399669787,
        "lon": 69.80823184271831,
        "alt_km": 737.3928667308983,
        "timestamp": "2025-12-24T20:42:21.410496+00:00",
        "meta_object_name": "IRIDIUM 33 DEB",
        "meta_object_id": "1997-051N",
        "meta_epoch": "2025-12-23T13:17:41.922816",
        "meta_mean_motion": 14.41490246,
        "meta_eccentricity": 0.00152222,
        "meta_inclination": 86.3625,
        "meta_ra_of_asc_node": 44.9362,
        "meta_arg_of_pericenter": 122.4462,
        "meta_mean_anomaly": 12.5884,
        "meta_ephemeris_type": 0,
        "meta_classification_type": "U",
        "meta_norad_cat_id": 33775,
        "meta_element_set_no": 999,
        "meta_rev_at_epoch": 88296,
        "meta_bstar": 0.00028606428,
        "meta_mean_motion_dot": 9.49e-06,
        "meta_mean_motion_ddot": 0,
        "tle_line1": "1 33775U 97051N   25357.55395744  .00000949  00000+0  28606-3 0  9997",
        "tle_line2": "2 33775  86.3625  44.9362 0015222 122.4462  12.5884 14.41490246882964"
      },
      "geometry": {
        "type": "Point",
        "coordinates": [
          69.80823184271831,
          81.57365399669787
        ]
      }
    },
    {
      "type": "Feature",
      "properties": {
        "norad_id": 33776,
        "name": "IRIDIUM 33 DEB",
        "group": "iridium-33-debris",
        "lat": 8.62522874138364,
        "lon": -104.86197769751081,
        "alt_km": 755.5947917799613,
        "timestamp": "2025-12-24T20:42:21.410508+00:00",
        "meta_object_name": "IRIDIUM 33 DEB",
        "meta_object_id": "1997-051P",
        "meta_epoch": "2025-12-24T05:10:49.952352",
        "meta_mean_motion": 14.38254354,
        "meta_eccentricity": 0.00156475,
        "meta_inclination": 86.403,
        "meta_ra_of_asc_node": 75.9564,
        "meta_arg_of_pericenter": 153.8702,
        "meta_mean_anomaly": 270.0125,
        "meta_ephemeris_type": 0,
        "meta_classification_type": "U",
        "meta_norad_cat_id": 33776,
        "meta_element_set_no": 999,
        "meta_rev_at_epoch": 88247,
        "meta_bstar": 0.00026399096,
        "meta_mean_motion_dot": 8.23e-06,
        "meta_mean_motion_ddot": 0,
        "tle_line1": "1 33776U 97051P   25358.21585593  .00000823  00000+0  26399-3 0  9993",
        "tle_line2": "2 33776  86.4030  75.9564 0015647 153.8702 270.0125 14.38254354882479"
      },
      "geometry": {
        "type": "Point",
        "coordinates": [
          -104.86197769751081,
          8.62522874138364
        ]
      }
    },
    {
      "type": "Feature",
      "properties": {
        "norad_id": 33777,
        "name": "IRIDIUM 33 DEB",
        "group": "iridium-33-debris",
        "lat": -2.5222712482326353,
        "lon": 29.768959262303614,
        "alt_km": 714.6289787469123,
        "timestamp": "2025-12-24T20:42:21.410519+00:00",
        "meta_object_name": "IRIDIUM 33 DEB",
        "meta_object_id": "1997-051Q",
        "meta_epoch": "2025-12-24T04:13:11.619552",
        "meta_mean_motion": 14.55689704,
        "meta_eccentricity": 0.00062099,
        "meta_inclination": 86.3772,
        "meta_ra_of_asc_node": 30.2277,
        "meta_arg_of_pericenter": 200.6361,
        "meta_mean_anomaly": 159.4597,
        "meta_ephemeris_type": 0,
        "meta_classification_type": "U",
        "meta_norad_cat_id": 33777,
        "meta_element_set_no": 999,
        "meta_rev_at_epoch": 88700,
        "meta_bstar": 0.0008483677,
        "meta_mean_motion_dot": 3.727e-05,
        "meta_mean_motion_ddot": 0,
        "tle_line1": "1 33777U 97051Q   25358.17582893  .00003727  00000+0  84837-3 0  9996",
        "tle_line2": "2 33777  86.3772  30.2277 0006209 200.6361 159.4597 14.55689704887000"
      },
      "geometry": {
        "type": "Point",
        "coordinates": [
          29.768959262303614,
          -2.5222712482326353
        ]
      }
    },
    {
      "type": "Feature",
      "properties": {
        "norad_id": 33850,
        "name": "IRIDIUM 33 DEB",
        "group": "iridium-33-debris",
        "lat": 85.30123518521319,
        "lon": 153.83396791701642,
        "alt_km": 735.8332940085193,
        "timestamp": "2025-12-24T20:42:21.410530+00:00",
        "meta_object_name": "IRIDIUM 33 DEB",
        "meta_object_id": "1997-051T",
        "meta_epoch": "2025-12-24T00:35:08.831328",
        "meta_mean_motion": 14.42173299,
        "meta_eccentricity": 0.00132349,
        "meta_inclination": 86.3407,
        "meta_ra_of_asc_node": 25.3267,
        "meta_arg_of_pericenter": 127.4585,
        "meta_mean_anomaly": 295.8147,
        "meta_ephemeris_type": 0,
        "meta_classification_type": "U",
        "meta_norad_cat_id": 33850,
        "meta_element_set_no": 999,
        "meta_rev_at_epoch": 88315,
        "meta_bstar": 0.0003866914,
        "meta_mean_motion_dot": 1.293e-05,
        "meta_mean_motion_ddot": 0,
        "tle_line1": "1 33850U 97051T   25358.02440777  .00001293  00000+0  38669-3 0  9994",
        "tle_line2": "2 33850  86.3407  25.3267 0013234 127.4585 295.8147 14.42173299883152"
      },
      "geometry": {
        "type": "Point",
        "coordinates": [
          153.83396791701642,
          85.30123518521319
        ]
      }
    },
    {
      "type": "Feature",
      "properties": {
        "norad_id": 33853,
        "name": "IRIDIUM 33 DEB",
        "group": "iridium-33-debris",
        "lat": 38.344124023178416,
        "lon": -12.332863027296685,
        "alt_km": 1035.559730670896,
        "timestamp": "2025-12-24T20:42:21.410542+00:00",
        "meta_object_name": "IRIDIUM 33 DEB",
        "meta_object_id": "1997-051W",
        "meta_epoch": "2025-12-24T05:08:01.366080",
        "meta_mean_motion": 13.99117235,
        "meta_eccentricity": 0.02076617,
        "meta_inclination": 86.0001,
        "meta_ra_of_asc_node": 344.7788,
        "meta_arg_of_pericenter": 200.434,
        "meta_mean_anomaly": 172.8166,
        "meta_ephemeris_type": 0,
        "meta_classification_type": "U",
        "meta_norad_cat_id": 33853,
        "meta_element_set_no": 999,
        "meta_rev_at_epoch": 85506,
        "meta_bstar": 0.0011765218,
        "meta_mean_motion_dot": 2.066e-05,
        "meta_mean_motion_ddot": 0,
        "tle_line1": "1 33853U 97051W   25358.21390470  .00002066  00000+0  11765-2 0  9998",
        "tle_line2": "2 33853  86.0001 344.7788 0207661 200.4340 172.8166 13.99117235855061"
      },
      "geometry": {
        "type": "Point",
        "coordinates": [
          -12.332863027296685,
          38.344124023178416
        ]
      }
    }
  ]
}